<?xml version="1.0" encoding="UTF-8"?>
<ndm xmlns:xsi="http://www.w3.org/2001/XMLSchema-instance" xsi:noNamespaceSchemaLocation="https://sanaregistry.org/r/ndmxml_unqualified/ndmxml-2.0.0-master-2.0.xsd">
<omm id="CCSDS_OMM_VERS" version="2.0">
<header><CREATION_DATE/><ORIGINATOR/></header><body><segment><metadata><OBJECT_NAME>ONEWEB-0196</OBJECT_NAME><OBJECT_ID>2021-031J</OBJECT_ID><CENTER_NAME>EARTH</CENTER_NAME><REF_FRAME>TEME</REF_FRAME><TIME_SYSTEM>UTC</TIME_SYSTEM><MEAN_ELEMENT_THEORY>SGP4</MEAN_ELEMENT_THEORY></metadata><data><meanElements><EPOCH>2025-11-08T11:24:39.634272</EPOCH><MEAN_MOTION>13.14500387</MEAN_MOTION><ECCENTRICITY>.0001978</ECCENTRICITY><INCLINATION>87.8996</INCLINATION><RA_OF_ASC_NODE>333.6817</RA_OF_ASC_NODE><ARG_OF_PERICENTER>89.5378</ARG_OF_PERICENTER><MEAN_ANOMALY>270.5979</MEAN_ANOMALY></meanElements><tleParameters><EPHEMERIS_TYPE>0</EPHEMERIS_TYPE><CLASSIFICATION_TYPE>U</CLASSIFICATION_TYPE><NORAD_CAT_ID>48218</NORAD_CAT_ID><ELEMENT_SET_NO>999</ELEMENT_SET_NO><REV_AT_EPOCH>21923</REV_AT_EPOCH><BSTAR>-.63605E-3</BSTAR><MEAN_MOTION_DOT>-.223E-5</MEAN_MOTION_DOT><MEAN_MOTION_DDOT>0</MEAN_MOTION_DDOT></tleParameters></data></segment></body></omm>
<omm id="CCSDS_OMM_VERS" version="2.0">
<header><CREATION_DATE/><ORIGINATOR/></header><body><segment><metadata><OBJECT_NAME>ONEWEB-0183</OBJECT_NAME><OBJECT_ID>2021-031K</OBJECT_ID><CENTER_NAME>EARTH</CENTER_NAME><REF_FRAME>TEME</REF_FRAME><TIME_SYSTEM>UTC</TIME_SYSTEM><MEAN_ELEMENT_THEORY>SGP4</MEAN_ELEMENT_THEORY></metadata><data><meanElements><EPOCH>2025-11-08T18:06:34.701120</EPOCH><MEAN_MOTION>13.14503368</MEAN_MOTION><ECCENTRICITY>.0001672</ECCENTRICITY><INCLINATION>87.8999</INCLINATION><RA_OF_ASC_NODE>333.6334</RA_OF_ASC_NODE><ARG_OF_PERICENTER>90.8071</ARG_OF_PERICENTER><MEAN_ANOMALY>269.3250</MEAN_ANOMALY></meanElements><tleParameters><EPHEMERIS_TYPE>0</EPHEMERIS_TYPE><CLASSIFICATION_TYPE>U</CLASSIFICATION_TYPE><NORAD_CAT_ID>48219</NORAD_CAT_ID><ELEMENT_SET_NO>999</ELEMENT_SET_NO><REV_AT_EPOCH>21936</REV_AT_EPOCH><BSTAR>.17566E-3</BSTAR><MEAN_MOTION_DOT>.78E-6</MEAN_MOTION_DOT><MEAN_MOTION_DDOT>0</MEAN_MOTION_DDOT></tleParameters></data></segment></body></omm>
<omm id="CCSDS_OMM_VERS" version="2.0">
<header><CREATION_DATE/><ORIGINATOR/></header><body><segment><metadata><OBJECT_NAME>ONEWEB-0185</OBJECT_NAME><OBJECT_ID>2021-031L</OBJECT_ID><CENTER_NAME>EARTH</CENTER_NAME><REF_FRAME>TEME</REF_FRAME><TIME_SYSTEM>UTC</TIME_SYSTEM><MEAN_ELEMENT_THEORY>SGP4</MEAN_ELEMENT_THEORY></metadata><data><meanElements><EPOCH>2025-11-08T11:25:50.132352</EPOCH><MEAN_MOTION>13.14501985</MEAN_MOTION><ECCENTRICITY>.0001712</ECCENTRICITY><INCLINATION>87.9000</INCLINATION><RA_OF_ASC_NODE>333.6591</RA_OF_ASC_NODE><ARG_OF_PERICENTER>81.1890</ARG_OF_PERICENTER><MEAN_ANOMALY>278.9433</MEAN_ANOMALY></meanElements><tleParameters><EPHEMERIS_TYPE>0</EPHEMERIS_TYPE><CLASSIFICATION_TYPE>U</CLASSIFICATION_TYPE><NORAD_CAT_ID>48220</NORAD_CAT_ID><ELEMENT_SET_NO>999</ELEMENT_SET_NO><REV_AT_EPOCH>21925</REV_AT_EPOCH><BSTAR>-.62746E-3</BSTAR><MEAN_MOTION_DOT>-.22E-5</MEAN_MOTION_DOT><MEAN_MOTION_DDOT>0</MEAN_MOTION_DDOT></tleParameters></data></segment></body></omm>
<omm id="CCSDS_OMM_VERS" version="2.0">
<header><CREATION_DATE/><ORIGINATOR/></header><body><segment><metadata><OBJECT_NAME>ONEWEB-0187</OBJECT_NAME><OBJECT_ID>2021-031M</OBJECT_ID><CENTER_NAME>EARTH</CENTER_NAME><REF_FRAME>TEME</REF_FRAME><TIME_SYSTEM>UTC</TIME_SYSTEM><MEAN_ELEMENT_THEORY>SGP4</MEAN_ELEMENT_THEORY></metadata><data><meanElements><EPOCH>2025-11-08T10:57:03.951072</EPOCH><MEAN_MOTION>13.14501166</MEAN_MOTION><ECCENTRICITY>.00019</ECCENTRICITY><INCLINATION>87.8998</INCLINATION><RA_OF_ASC_NODE>333.7082</RA_OF_ASC_NODE><ARG_OF_PERICENTER>84.9843</ARG_OF_PERICENTER><MEAN_ANOMALY>275.1503</MEAN_ANOMALY></meanElements><tleParameters><EPHEMERIS_TYPE>0</EPHEMERIS_TYPE><CLASSIFICATION_TYPE>U</CLASSIFICATION_TYPE><NORAD_CAT_ID>48221</NORAD_CAT_ID><ELEMENT_SET_NO>999</ELEMENT_SET_NO><REV_AT_EPOCH>21926</REV_AT_EPOCH><BSTAR>.74086E-4</BSTAR><MEAN_MOTION_DOT>.4E-6</MEAN_MOTION_DOT><MEAN_MOTION_DDOT>0</MEAN_MOTION_DDOT></tleParameters></data></segment></body></omm>
<omm id="CCSDS_OMM_VERS" version="2.0">
<header><CREATION_DATE/><ORIGINATOR/></header><body><segment><metadata><OBJECT_NAME>ONEWEB-0192</OBJECT_NAME><OBJECT_ID>2021-031N</OBJECT_ID><CENTER_NAME>EARTH</CENTER_NAME><REF_FRAME>TEME</REF_FRAME><TIME_SYSTEM>UTC</TIME_SYSTEM><MEAN_ELEMENT_THEORY>SGP4</MEAN_ELEMENT_THEORY></metadata><data><meanElements><EPOCH>2025-11-08T12:03:29.811168</EPOCH><MEAN_MOTION>13.14504407</MEAN_MOTION><ECCENTRICITY>.0001914</ECCENTRICITY><INCLINATION>87.8990</INCLINATION><RA_OF_ASC_NODE>333.6904</RA_OF_ASC_NODE><ARG_OF_PERICENTER>92.8933</ARG_OF_PERICENTER><MEAN_ANOMALY>267.2416</MEAN_ANOMALY></meanElements><tleParameters><EPHEMERIS_TYPE>0</EPHEMERIS_TYPE><CLASSIFICATION_TYPE>U</CLASSIFICATION_TYPE><NORAD_CAT_ID>48222</NORAD_CAT_ID><ELEMENT_SET_NO>999</ELEMENT_SET_NO><REV_AT_EPOCH>21918</REV_AT_EPOCH><BSTAR>.27201E-3</BSTAR><MEAN_MOTION_DOT>.114E-5</MEAN_MOTION_DOT><MEAN_MOTION_DDOT>0</MEAN_MOTION_DDOT></tleParameters></data></segment></body></omm>
<omm id="CCSDS_OMM_VERS" version="2.0">
<header><CREATION_DATE/><ORIGINATOR/></header><body><segment><metadata><OBJECT_NAME>ONEWEB-0219</OBJECT_NAME><OBJECT_ID>2021-031P</OBJECT_ID><CENTER_NAME>EARTH</CENTER_NAME><REF_FRAME>TEME</REF_FRAME><TIME_SYSTEM>UTC</TIME_SYSTEM><MEAN_ELEMENT_THEORY>SGP4</MEAN_ELEMENT_THEORY></metadata><data><meanElements><EPOCH>2025-11-08T11:33:47.691072</EPOCH><MEAN_MOTION>13.14502683</MEAN_MOTION><ECCENTRICITY>.0001793</ECCENTRICITY><INCLINATION>87.8999</INCLINATION><RA_OF_ASC_NODE>333.6695</RA_OF_ASC_NODE><ARG_OF_PERICENTER>85.0713</ARG_OF_PERICENTER><MEAN_ANOMALY>275.0621</MEAN_ANOMALY></meanElements><tleParameters><EPHEMERIS_TYPE>0</EPHEMERIS_TYPE><CLASSIFICATION_TYPE>U</CLASSIFICATION_TYPE><NORAD_CAT_ID>48223</NORAD_CAT_ID><ELEMENT_SET_NO>999</ELEMENT_SET_NO><REV_AT_EPOCH>21938</REV_AT_EPOCH><BSTAR>-.12263E-2</BSTAR><MEAN_MOTION_DOT>-.442E-5</MEAN_MOTION_DOT><MEAN_MOTION_DDOT>0</MEAN_MOTION_DDOT></tleParameters></data></segment></body></omm>
<omm id="CCSDS_OMM_VERS" version="2.0">
<header><CREATION_DATE/><ORIGINATOR/></header><body><segment><metadata><OBJECT_NAME>ONEWEB-0202</OBJECT_NAME><OBJECT_ID>2021-031Q</OBJECT_ID><CENTER_NAME>EARTH</CENTER_NAME><REF_FRAME>TEME</REF_FRAME><TIME_SYSTEM>UTC</TIME_SYSTEM><MEAN_ELEMENT_THEORY>SGP4</MEAN_ELEMENT_THEORY></metadata><data><meanElements><EPOCH>2025-11-08T11:06:25.934688</EPOCH><MEAN_MOTION>13.14503143</MEAN_MOTION><ECCENTRICITY>.0002559</ECCENTRICITY><INCLINATION>87.8998</INCLINATION><RA_OF_ASC_NODE>333.6866</RA_OF_ASC_NODE><ARG_OF_PERICENTER>87.0883</ARG_OF_PERICENTER><MEAN_ANOMALY>273.0539</MEAN_ANOMALY></meanElements><tleParameters><EPHEMERIS_TYPE>0</EPHEMERIS_TYPE><CLASSIFICATION_TYPE>U</CLASSIFICATION_TYPE><NORAD_CAT_ID>48224</NORAD_CAT_ID><ELEMENT_SET_NO>999</ELEMENT_SET_NO><REV_AT_EPOCH>21936</REV_AT_EPOCH><BSTAR>-.40851E-3</BSTAR><MEAN_MOTION_DOT>-.139E-5</MEAN_MOTION_DOT><MEAN_MOTION_DDOT>0</MEAN_MOTION_DDOT></tleParameters></data></segment></body></omm>
<omm id="CCSDS_OMM_VERS" version="2.0">
<header><CREATION_DATE/><ORIGINATOR/></header><body><segment><metadata><OBJECT_NAME>ONEWEB-0204</OBJECT_NAME><OBJECT_ID>2021-031R</OBJECT_ID><CENTER_NAME>EARTH</CENTER_NAME><REF_FRAME>TEME</REF_FRAME><TIME_SYSTEM>UTC</TIME_SYSTEM><MEAN_ELEMENT_THEORY>SGP4</MEAN_ELEMENT_THEORY></metadata><data><meanElements><EPOCH>2025-11-08T08:16:17.377248</EPOCH><MEAN_MOTION>13.14501597</MEAN_MOTION><ECCENTRICITY>.0001567</ECCENTRICITY><INCLINATION>87.9002</INCLINATION><RA_OF_ASC_NODE>333.6988</RA_OF_ASC_NODE><ARG_OF_PERICENTER>92.7628</ARG_OF_PERICENTER><MEAN_ANOMALY>267.3681</MEAN_ANOMALY></meanElements><tleParameters><EPHEMERIS_TYPE>0</EPHEMERIS_TYPE><CLASSIFICATION_TYPE>U</CLASSIFICATION_TYPE><NORAD_CAT_ID>48225</NORAD_CAT_ID><ELEMENT_SET_NO>999</ELEMENT_SET_NO><REV_AT_EPOCH>21924</REV_AT_EPOCH><BSTAR>.17904E-3</BSTAR><MEAN_MOTION_DOT>.79E-6</MEAN_MOTION_DOT><MEAN_MOTION_DDOT>0</MEAN_MOTION_DDOT></tleParameters></data></segment></body></omm>

</ndm>
