ONEWEB-0196             
1 48218U 21031J   25312.47545873 -.00000223  00000+0 -63605-3 0  9997
2 48218  87.8996 333.6817 0001978  89.5378 270.5979 13.14500387219236
ONEWEB-0183             
1 48219U 21031K   25312.75456830  .00000078  00000+0  17566-3 0  9994
2 48219  87.8999 333.6334 0001672  90.8071 269.3250 13.14503368219364
ONEWEB-0185             
1 48220U 21031L   25312.47627468 -.00000220  00000+0 -62746-3 0  9993
2 48220  87.9000 333.6591 0001712  81.1890 278.9433 13.14501985219252
ONEWEB-0187             
1 48221U 21031M   25312.45629573  .00000040  00000+0  74086-4 0  9990
2 48221  87.8998 333.7082 0001900  84.9843 275.1503 13.14501166219261
ONEWEB-0192             
1 48222U 21031N   25312.50242837  .00000114  00000+0  27201-3 0  9999
2 48222  87.8990 333.6904 0001914  92.8933 267.2416 13.14504407219186
ONEWEB-0219             
1 48223U 21031P   25312.48180198 -.00000442  00000+0 -12263-2 0  9995
2 48223  87.8999 333.6695 0001793  85.0713 275.0621 13.14502683219389
ONEWEB-0202             
1 48224U 21031Q   25312.46280017 -.00000139  00000+0 -40851-3 0  9993
2 48224  87.8998 333.6866 0002559  87.0883 273.0539 13.14503143219366
ONEWEB-0204             
1 48225U 21031R   25312.34464557  .00000079  00000+0  17904-3 0  9998
2 48225  87.9002 333.6988 0001567  92.7628 267.3681 13.14501597219249
